[{"OBJECT_NAME":"STARLINK-5658","OBJECT_ID":"2023-013H","EPOCH":"2026-03-09T01:45:35.531424","MEAN_MOTION":15.02534463,"ECCENTRICITY":0.00015027,"INCLINATION":43.0037,"RA_OF_ASC_NODE":303.9474,"ARG_OF_PERICENTER":260.8013,"MEAN_ANOMALY":99.2659,"EPHEMERIS_TYPE":0,"CLASSIFICATION_TYPE":"U","NORAD_CAT_ID":55338,"ELEMENT_SET_NO":999,"REV_AT_EPOCH":17161,"BSTAR":6.175238e-6,"MEAN_MOTION_DOT":-1.2e-6,"MEAN_MOTION_DDOT":0},{"OBJECT_NAME":"ION SCV-014","OBJECT_ID":"2025-009X","EPOCH":"2026-03-09T17:13:35.291712","MEAN_MOTION":15.0488465,"ECCENTRICITY":0.00064503,"INCLINATION":97.4923,"RA_OF_ASC_NODE":144.8636,"ARG_OF_PERICENTER":112.6479,"MEAN_ANOMALY":247.543,"EPHEMERIS_TYPE":0,"CLASSIFICATION_TYPE":"U","NORAD_CAT_ID":62630,"ELEMENT_SET_NO":999,"REV_AT_EPOCH":6302,"BSTAR":0.0001322874,"MEAN_MOTION_DOT":1.812e-5,"MEAN_MOTION_DDOT":0}]
